GLOBALSTAR M084         
1 38040U 11080A   25188.83714167 -.00000097  00000+0  37653-4 0  9990
2 38040  52.0032 345.6089 0001122  93.5749  56.1436 12.62266964625278
GLOBALSTAR M080         
1 38041U 11080B   25188.88912598 -.00000095  00000+0  49754-4 0  9997
2 38041  52.0080 347.0499 0000768 132.9432  22.5121 12.62263832625544
GLOBALSTAR M082         
1 38042U 11080C   25188.74657071 -.00000101  00000+0  14691-4 0  9995
2 38042  52.0091 302.9475 0000627 153.1237   5.0535 12.62266964626098
GLOBALSTAR M092         
1 38043U 11080D   25188.86645059 -.00000088  00000+0  87270-4 0  9999
2 38043  52.0099  32.9588 0000861  83.4744  19.5170 12.62264564624569
GLOBALSTAR M090         
1 38044U 11080E   25188.77343589 -.00000100  00000+0  19014-4 0  9999
2 38044  52.0137 296.7077 0000496 124.1556  37.5183 12.62260551626214
GLOBALSTAR M086         
1 38045U 11080F   25188.71906543 -.00000102  00000+0  11209-4 0  9999
2 38045  51.9910 297.3628 0001071  43.4845 111.5320 12.62272146626157
GLOBALSTAR M097         
1 39072U 13005A   25188.79077586 -.00000105  00000+0 -75443-5 0  9998
2 39072  52.0028 211.7115 0000028 351.5785   8.5082 12.62265486573417
GLOBALSTAR M093         
1 39073U 13005B   25188.76443625 -.00000085  00000+0  10268-3 0  9995
2 39073  51.9783 205.0617 0000106 303.1847  56.9009 12.62265902573369
